{"type": "FeatureCollection", "features": [ {"type": "Feature", "properties": {"norad_id": 66435, "name": "STARLINK-35502", "group": "last-30-days", "lat": 25.751178503759853, "lon": -109.11729157257203, "alt_km": 411.614821290259, "timestamp": "2025-12-03T08:58:44.776925+00:00", "meta": {"OBJECT_NAME": "STARLINK-35502", "OBJECT_ID": "2025-259P", "EPOCH": "2025-12-03T04:00:01.998720", "MEAN_MOTION": 15.50716173, "ECCENTRICITY": 0.0001693, "INCLINATION": 43.0002, "RA_OF_ASC_NODE": 103.2708, "ARG_OF_PERICENTER": 271.4009, "MEAN_ANOMALY": 149.5627, "EPHEMERIS_TYPE": 0, "CLASSIFICATION_TYPE": "U", "NORAD_CAT_ID": 66435, "ELEMENT_SET_NO": 999, "REV_AT_EPOCH": 474, "BSTAR": -0.0041492, "MEAN_MOTION_DOT": -0.00237684, "MEAN_MOTION_DDOT": 0}, "tle": {"line1": "1 66435U 25259P   25337.16668980 -.00237684  00000+0 -41492-2 0  9994", "line2": "2 66435  43.0002 103.2708 0001693 271.4009 149.5627 15.50716173  4743"}}, "geometry": {"type": "Point", "coordinates": [-109.11729157257203, 25.751178503759853]}}, {"type": "Feature", "properties": {"norad_id": 66436, "name": "STARLINK-35501", "group": "last-30-days", "lat": 23.493704058736483, "lon": -105.75895939215934, "alt_km": 411.8553474596156, "timestamp": "2025-12-03T08:58:44.776936+00:00", "meta": {"OBJECT_NAME": "STARLINK-35501", "OBJECT_ID": "2025-259Q", "EPOCH": "2025-12-03T04:00:01.998720", "MEAN_MOTION": 15.50684883, "ECCENTRICITY": 0.0001624, "INCLINATION": 43.0001, "RA_OF_ASC_NODE": 103.2603, "ARG_OF_PERICENTER": 270.8208, "MEAN_ANOMALY": 153.9518, "EPHEMERIS_TYPE": 0, "CLASSIFICATION_TYPE": "U", "NORAD_CAT_ID": 66436, "ELEMENT_SET_NO": 999, "REV_AT_EPOCH": 474, "BSTAR": -0.002458, "MEAN_MOTION_DOT": -0.00142485, "MEAN_MOTION_DDOT": 0}, "tle": {"line1": "1 66436U 25259Q   25337.16668980 -.00142485  00000+0 -24580-2 0  9998", "line2": "2 66436  43.0001 103.2603 0001624 270.8208 153.9518 15.50684883  4745"}}, "geometry": {"type": "Point", "coordinates": [-105.75895939215934, 23.493704058736483]}}, {"type": "Feature", "properties": {"norad_id": 66437, "name": "STARLINK-35474", "group": "last-30-days", "lat": 22.33668666172434, "lon": -104.12090671908061, "alt_km": 411.99408911614955, "timestamp": "2025-12-03T08:58:44.776946+00:00", "meta": {"OBJECT_NAME": "STARLINK-35474", "OBJECT_ID": "2025-259R", "EPOCH": "2025-12-03T04:00:01.998720", "MEAN_MOTION": 15.50679147, "ECCENTRICITY": 0.0001643, "INCLINATION": 43.0002, "RA_OF_ASC_NODE": 103.2558, "ARG_OF_PERICENTER": 269.8238, "MEAN_ANOMALY": 156.8533, "EPHEMERIS_TYPE": 0, "CLASSIFICATION_TYPE": "U", "NORAD_CAT_ID": 66437, "ELEMENT_SET_NO": 999, "REV_AT_EPOCH": 474, "BSTAR": -0.0020822, "MEAN_MOTION_DOT": -0.00121057, "MEAN_MOTION_DDOT": 0}, "tle": {"line1": "1 66437U 25259R   25337.16668980 -.00121057  00000+0 -20822-2 0  9996", "line2": "2 66437  43.0002 103.2558 0001643 269.8238 156.8533 15.50679147  4744"}}, "geometry": {"type": "Point", "coordinates": [-104.12090671908061, 22.33668666172434]}}, {"type": "Feature", "properties": {"norad_id": 66438, "name": "STARLINK-34681", "group": "last-30-days", "lat": 21.154545792264095, "lon": -102.49878338811693, "alt_km": 412.0946840019724, "timestamp": "2025-12-03T08:58:44.776959+00:00", "meta": {"OBJECT_NAME": "STARLINK-34681", "OBJECT_ID": "2025-259S", "EPOCH": "2025-12-03T04:00:01.998720", "MEAN_MOTION": 15.50679748, "ECCENTRICITY": 0.0001639, "INCLINATION": 43.0002, "RA_OF_ASC_NODE": 103.2507, "ARG_OF_PERICENTER": 266.424, "MEAN_ANOMALY": 162.171, "EPHEMERIS_TYPE": 0, "CLASSIFICATION_TYPE": "U", "NORAD_CAT_ID": 66438, "ELEMENT_SET_NO": 999, "REV_AT_EPOCH": 463, "BSTAR": -0.0021168, "MEAN_MOTION_DOT": -0.00123036, "MEAN_MOTION_DDOT": 0}, "tle": {"line1": "1 66438U 25259S   25337.16668980 -.00123036  00000+0 -21168-2 0  9990", "line2": "2 66438  43.0002 103.2507 0001639 266.4240 162.1710 15.50679748  4632"}}, "geometry": {"type": "Point", "coordinates": [-102.49878338811693, 21.154545792264095]}}, {"type": "Feature", "properties": {"norad_id": 66439, "name": "STARLINK-35327", "group": "last-30-days", "lat": 24.618315858108375, "lon": -107.4009547859209, "alt_km": 411.778922454273, "timestamp": "2025-12-03T08:58:44.776970+00:00", "meta": {"OBJECT_NAME": "STARLINK-35327", "OBJECT_ID": "2025-259T", "EPOCH": "2025-12-03T04:00:01.998720", "MEAN_MOTION": 15.50715953, "ECCENTRICITY": 0.0001662, "INCLINATION": 43.0003, "RA_OF_ASC_NODE": 103.2672, "ARG_OF_PERICENTER": 272.5129, "MEAN_ANOMALY": 150.3748, "EPHEMERIS_TYPE": 0, "CLASSIFICATION_TYPE": "U", "NORAD_CAT_ID": 66439, "ELEMENT_SET_NO": 999, "REV_AT_EPOCH": 474, "BSTAR": -0.0042417, "MEAN_MOTION_DOT": -0.00242817, "MEAN_MOTION_DDOT": 0}, "tle": {"line1": "1 66439U 25259T   25337.16668980 -.00242817  00000+0 -42417-2 0  9990", "line2": "2 66439  43.0003 103.2672 0001662 272.5129 150.3748 15.50715953  4748"}}, "geometry": {"type": "Point", "coordinates": [-107.4009547859209, 24.618315858108375]}}, {"type": "Feature", "properties": {"norad_id": 66440, "name": "STARLINK-35405", "group": "last-30-days", "lat": 19.947656295257538, "lon": -100.88895166073276, "alt_km": 412.3184694042875, "timestamp": "2025-12-03T08:58:44.776981+00:00", "meta": {"OBJECT_NAME": "STARLINK-35405", "OBJECT_ID": "2025-259U", "EPOCH": "2025-12-03T04:00:01.998720", "MEAN_MOTION": 15.50685129, "ECCENTRICITY": 0.0001612, "INCLINATION": 43.0002, "RA_OF_ASC_NODE": 103.2468, "ARG_OF_PERICENTER": 270.1923, "MEAN_ANOMALY": 160.3337, "EPHEMERIS_TYPE": 0, "CLASSIFICATION_TYPE": "U", "NORAD_CAT_ID": 66440, "ELEMENT_SET_NO": 999, "REV_AT_EPOCH": 474, "BSTAR": -0.0024868, "MEAN_MOTION_DOT": -0.00144122, "MEAN_MOTION_DDOT": 0}, "tle": {"line1": "1 66440U 25259U   25337.16668980 -.00144122  00000+0 -24868-2 0  9992", "line2": "2 66440  43.0002 103.2468 0001612 270.1923 160.3337 15.50685129  4749"}}, "geometry": {"type": "Point", "coordinates": [-100.88895166073276, 19.947656295257538]}}, {"type": "Feature", "properties": {"norad_id": 66441, "name": "STARLINK-35426", "group": "last-30-days", "lat": 18.74131774709525, "lon": -99.32508097867495, "alt_km": 412.40920729895606, "timestamp": "2025-12-03T08:58:44.776991+00:00", "meta": {"OBJECT_NAME": "STARLINK-35426", "OBJECT_ID": "2025-259V", "EPOCH": "2025-12-03T04:00:01.998720", "MEAN_MOTION": 15.50686468, "ECCENTRICITY": 0.0001618, "INCLINATION": 43.0001, "RA_OF_ASC_NODE": 103.2408, "ARG_OF_PERICENTER": 266.593, "MEAN_ANOMALY": 165.841, "EPHEMERIS_TYPE": 0, "CLASSIFICATION_TYPE": "U", "NORAD_CAT_ID": 66441, "ELEMENT_SET_NO": 999, "REV_AT_EPOCH": 474, "BSTAR": -0.0024095, "MEAN_MOTION_DOT": -0.00139738, "MEAN_MOTION_DDOT": 0}, "tle": {"line1": "1 66441U 25259V   25337.16668980 -.00139738  00000+0 -24095-2 0  9992", "line2": "2 66441  43.0001 103.2408 0001618 266.5930 165.8410 15.50686468  4745"}}, "geometry": {"type": "Point", "coordinates": [-99.32508097867495, 18.74131774709525]}}, {"type": "Feature", "properties": {"norad_id": 66442, "name": "STARLINK-34724", "group": "last-30-days", "lat": 17.487239644443786, "lon": -97.73754876391062, "alt_km": 412.91351450823277, "timestamp": "2025-12-03T08:58:44.777001+00:00", "meta": {"OBJECT_NAME": "STARLINK-34724", "OBJECT_ID": "2025-259W", "EPOCH": "2025-12-03T04:00:01.998720", "MEAN_MOTION": 15.50625196, "ECCENTRICITY": 0.0001889, "INCLINATION": 43.0002, "RA_OF_ASC_NODE": 103.2369, "ARG_OF_PERICENTER": 272.22, "MEAN_ANOMALY": 162.2218, "EPHEMERIS_TYPE": 0, "CLASSIFICATION_TYPE": "U", "NORAD_CAT_ID": 66442, "ELEMENT_SET_NO": 999, "REV_AT_EPOCH": 474, "BSTAR": -0.0020339, "MEAN_MOTION_DOT": -0.00118079, "MEAN_MOTION_DDOT": 0}, "tle": {"line1": "1 66442U 25259W   25337.16668980 -.00118079  00000+0 -20339-2 0  9995", "line2": "2 66442  43.0002 103.2369 0001889 272.2200 162.2218 15.50625196  4745"}}, "geometry": {"type": "Point", "coordinates": [-97.73754876391062, 17.487239644443786]}}, {"type": "Feature", "properties": {"norad_id": 66443, "name": "STARLINK-35219", "group": "last-30-days", "lat": 16.249618453824, "lon": -96.2088834037563, "alt_km": 412.9540616795357, "timestamp": "2025-12-03T08:58:44.777012+00:00", "meta": {"OBJECT_NAME": "STARLINK-35219", "OBJECT_ID": "2025-259X", "EPOCH": "2025-12-03T04:00:01.998720", "MEAN_MOTION": 15.5062785, "ECCENTRICITY": 0.0001844, "INCLINATION": 43.0002, "RA_OF_ASC_NODE": 103.2317, "ARG_OF_PERICENTER": 267.166, "MEAN_ANOMALY": 169.1941, "EPHEMERIS_TYPE": 0, "CLASSIFICATION_TYPE": "U", "NORAD_CAT_ID": 66443, "ELEMENT_SET_NO": 999, "REV_AT_EPOCH": 463, "BSTAR": -0.0021429, "MEAN_MOTION_DOT": -0.00124303, "MEAN_MOTION_DDOT": 0}, "tle": {"line1": "1 66443U 25259X   25337.16668980 -.00124303  00000+0 -21429-2 0  9994", "line2": "2 66443  43.0002 103.2317 0001844 267.1660 169.1941 15.50627850  4639"}}, "geometry": {"type": "Point", "coordinates": [-96.2088834037563, 16.249618453824]}}, {"type": "Feature", "properties": {"norad_id": 66444, "name": "STARLINK-35360", "group": "last-30-days", "lat": 12.513098387104668, "lon": -91.7751017891604, "alt_km": 413.11010896937114, "timestamp": "2025-12-03T08:58:44.777023+00:00", "meta": {"OBJECT_NAME": "STARLINK-35360", "OBJECT_ID": "2025-259Y", "EPOCH": "2025-12-03T04:00:01.998720", "MEAN_MOTION": 15.50676291, "ECCENTRICITY": 0.0001681, "INCLINATION": 43.0004, "RA_OF_ASC_NODE": 103.2168, "ARG_OF_PERICENTER": 260.9161, "MEAN_ANOMALY": 181.106, "EPHEMERIS_TYPE": 0, "CLASSIFICATION_TYPE": "U", "NORAD_CAT_ID": 66444, "ELEMENT_SET_NO": 999, "REV_AT_EPOCH": 474, "BSTAR": -0.0020786, "MEAN_MOTION_DOT": -0.00120842, "MEAN_MOTION_DDOT": 0}, "tle": {"line1": "1 66444U 25259Y   25337.16668980 -.00120842  00000+0 -20786-2 0  9994", "line2": "2 66444  43.0004 103.2168 0001681 260.9161 181.1060 15.50676291  4743"}}, "geometry": {"type": "Point", "coordinates": [-91.7751017891604, 12.513098387104668]}}]}